[{"OBJECT_NAME":"STARLINK-1559","OBJECT_ID":"2020-055BC","EPOCH":"2026-03-09T05:36:23.522976","MEAN_MOTION":15.29461733,"ECCENTRICITY":0.0004229,"INCLINATION":53.0254,"RA_OF_ASC_NODE":76.0659,"ARG_OF_PERICENTER":33.971,"MEAN_ANOMALY":326.1559,"EPHEMERIS_TYPE":0,"CLASSIFICATION_TYPE":"U","NORAD_CAT_ID":46077,"ELEMENT_SET_NO":999,"REV_AT_EPOCH":30951,"BSTAR":0.0014778793,"MEAN_MOTION_DOT":0.00042685,"MEAN_MOTION_DDOT":0},{"OBJECT_NAME":"STARLINK-32696","OBJECT_ID":"2024-239K","EPOCH":"2026-03-09T21:43:13.766880","MEAN_MOTION":15.30178142,"ECCENTRICITY":0.0001192,"INCLINATION":53.1578,"RA_OF_ASC_NODE":193.1542,"ARG_OF_PERICENTER":68.9211,"MEAN_ANOMALY":291.1917,"EPHEMERIS_TYPE":0,"CLASSIFICATION_TYPE":"U","NORAD_CAT_ID":62310,"ELEMENT_SET_NO":999,"REV_AT_EPOCH":6941,"BSTAR":0.00093902373,"MEAN_MOTION_DOT":0.00027536,"MEAN_MOTION_DDOT":0}]
